start=new Date('2021-09-08T00:00:00.000Z').valueOf();
sats=[{"DECAY_DATE":null,"OBJECT_ID":"2021-027AX","EPOCH":"2021-09-07T13:09:01.034496","SITE":"AFETR","OBJECT_TYPE":"PAYLOAD","RCS_SIZE":"LARGE","COUNTRY_CODE":"US","REV_AT_EPOCH":"2488","MEAN_ELEMENT_THEORY":"SGP4","MEAN_MOTION_DDOT":"0.0000000000000","PERIOD":"95.592","ELEMENT_SET_NO":"999","EPHEMERIS_TYPE":"0","FILE":"3110443","RA_OF_ASC_NODE":"332.5050","TLE_LINE2":"2 48137  53.0409 332.5050 0001144 157.0093 203.0947 15.06394659 24884","MEAN_MOTION":"15.06394659","TLE_LINE1":"1 48137U 21027AX  21250.54792864 -.00000603  00000-0 -21611-4 0  9996","OBJECT_NAME":"STARLINK-2480","REF_FRAME":"TEME","LAUNCH_DATE":"2021-04-07","TIME_SYSTEM":"UTC","ARG_OF_PERICENTER":"157.0093","MEAN_ANOMALY":"203.0947","INCLINATION":"53.0409","NORAD_CAT_ID":"48137","ECCENTRICITY":"0.00011440","BSTAR":"-0.00002161100000","SEMIMAJOR_AXIS":"6925.365","GP_ID":"184284092","MEAN_MOTION_DOT":"-0.00000603","CLASSIFICATION_TYPE":"U","CENTER_NAME":"EARTH","APOAPSIS":"548.022","PERIAPSIS":"546.438"},{"GP_ID":"184282840","CLASSIFICATION_TYPE":"U","MEAN_MOTION_DOT":"-0.00000438","CENTER_NAME":"EARTH","APOAPSIS":"548.004","PERIAPSIS":"546.427","NORAD_CAT_ID":"48138","ECCENTRICITY":"0.00011390","BSTAR":"-0.00001051600000","SEMIMAJOR_AXIS":"6925.351","ARG_OF_PERICENTER":"116.4779","MEAN_ANOMALY":"243.6326","INCLINATION":"53.0577","REF_FRAME":"TEME","LAUNCH_DATE":"2021-04-07","TIME_SYSTEM":"UTC","TLE_LINE1":"1 48138U 21027AY  21250.70553136 -.00000438  00000-0 -10516-4 0  9990","OBJECT_NAME":"STARLINK-2481","RA_OF_ASC_NODE":"351.7424","MEAN_MOTION":"15.06399355","TLE_LINE2":"2 48138  53.0577 351.7424 0001139 116.4779 243.6326 15.06399355 24635","ELEMENT_SET_NO":"999","EPHEMERIS_TYPE":"0","FILE":"3110443","DECAY_DATE":null,"OBJECT_ID":"2021-027AY","OBJECT_TYPE":"PAYLOAD","SITE":"AFETR","EPOCH":"2021-09-07T16:55:57.909504","RCS_SIZE":"LARGE","MEAN_ELEMENT_THEORY":"SGP4","COUNTRY_CODE":"US","REV_AT_EPOCH":"2463","MEAN_MOTION_DDOT":"0.0000000000000","PERIOD":"95.592"},{"RA_OF_ASC_NODE":"332.3759","TLE_LINE2":"2 48139  53.0561 332.3759 0000954 142.0877 218.0180 15.06392437 24899","MEAN_MOTION":"15.06392437","TLE_LINE1":"1 48139U 21027AZ  21250.56362155 -.00000721  00000-0 -29544-4 0  9990","OBJECT_NAME":"STARLINK-2482","DECAY_DATE":null,"OBJECT_ID":"2021-027AZ","SITE":"AFETR","OBJECT_TYPE":"PAYLOAD","EPOCH":"2021-09-07T13:31:36.901920","RCS_SIZE":"LARGE","REV_AT_EPOCH":"2489","COUNTRY_CODE":"US","MEAN_ELEMENT_THEORY":"SGP4","PERIOD":"95.593","MEAN_MOTION_DDOT":"0.0000000000000","ELEMENT_SET_NO":"999","EPHEMERIS_TYPE":"0","FILE":"3110443","NORAD_CAT_ID":"48139","ECCENTRICITY":"0.00009540","BSTAR":"-0.00002954400000","SEMIMAJOR_AXIS":"6925.372","GP_ID":"184283590","CLASSIFICATION_TYPE":"U","MEAN_MOTION_DOT":"-0.00000721","APOAPSIS":"547.897","CENTER_NAME":"EARTH","PERIAPSIS":"546.576","REF_FRAME":"TEME","LAUNCH_DATE":"2021-04-07","TIME_SYSTEM":"UTC","ARG_OF_PERICENTER":"142.0877","MEAN_ANOMALY":"218.0180","INCLINATION":"53.0561"},{"CLASSIFICATION_TYPE":"U","MEAN_MOTION_DOT":"0.00001269","GP_ID":"184283842","PERIAPSIS":"546.386","APOAPSIS":"548.066","CENTER_NAME":"EARTH","ECCENTRICITY":"0.00012130","NORAD_CAT_ID":"48140","SEMIMAJOR_AXIS":"6925.361","BSTAR":"0.00010409000000","MEAN_ANOMALY":"234.9241","INCLINATION":"53.0570","ARG_OF_PERICENTER":"125.1862","REF_FRAME":"TEME","TIME_SYSTEM":"UTC","LAUNCH_DATE":"2021-04-07","TLE_LINE1":"1 48140U 21027BA  21250.59769212  .00001269  00000-0  10409-3 0  9995","OBJECT_NAME":"STARLINK-2483","RA_OF_ASC_NODE":"352.2206","MEAN_MOTION":"15.06395838","TLE_LINE2":"2 48140  53.0570 352.2206 0001213 125.1862 234.9241 15.06395838 24617","ELEMENT_SET_NO":"999","EPHEMERIS_TYPE":"0","FILE":"3110443","RCS_SIZE":"LARGE","DECAY_DATE":null,"OBJECT_ID":"2021-027BA","SITE":"AFETR","EPOCH":"2021-09-07T14:20:40.599168","OBJECT_TYPE":"PAYLOAD","PERIOD":"95.592","MEAN_MOTION_DDOT":"0.0000000000000","MEAN_ELEMENT_THEORY":"SGP4","COUNTRY_CODE":"US","REV_AT_EPOCH":"2461"},{"SEMIMAJOR_AXIS":"6925.356","BSTAR":"-0.00001517700000","ECCENTRICITY":"0.00010110","NORAD_CAT_ID":"48141","PERIAPSIS":"546.520","CENTER_NAME":"EARTH","APOAPSIS":"547.921","CLASSIFICATION_TYPE":"U","MEAN_MOTION_DOT":"-0.00000507","GP_ID":"184284592","TIME_SYSTEM":"UTC","LAUNCH_DATE":"2021-04-07","REF_FRAME":"TEME","MEAN_ANOMALY":"221.3217","INCLINATION":"53.0580","ARG_OF_PERICENTER":"138.7848","MEAN_MOTION":"15.06397696","TLE_LINE2":"2 48141  53.0580 351.5303 0001011 138.7848 221.3217 15.06397696 24650","RA_OF_ASC_NODE":"351.5303","OBJECT_NAME":"STARLINK-2484","TLE_LINE1":"1 48141U 21027BB  21250.75344442 -.00000507  00000-0 -15177-4 0  9992","PERIOD":"95.592","MEAN_MOTION_DDOT":"0.0000000000000","MEAN_ELEMENT_THEORY":"SGP4","COUNTRY_CODE":"US","REV_AT_EPOCH":"2465","RCS_SIZE":"LARGE","OBJECT_ID":"2021-027BB","DECAY_DATE":null,"SITE":"AFETR","EPOCH":"2021-09-07T18:04:57.597888","OBJECT_TYPE":"PAYLOAD","EPHEMERIS_TYPE":"0","FILE":"3110443","ELEMENT_SET_NO":"999"},{"DECAY_DATE":null,"OBJECT_ID":"2021-027BC","EPOCH":"2021-09-07T11:50:47.731200","SITE":"AFETR","OBJECT_TYPE":"PAYLOAD","RCS_SIZE":"LARGE","COUNTRY_CODE":"US","REV_AT_EPOCH":"2448","MEAN_ELEMENT_THEORY":"SGP4","MEAN_MOTION_DDOT":"0.0000000000000","PERIOD":"95.592","ELEMENT_SET_NO":"999","EPHEMERIS_TYPE":"0","FILE":"3110346","RA_OF_ASC_NODE":"332.6961","TLE_LINE2":"2 48142  53.0577 332.6961 0000744 144.6383 215.4656 15.06401488 24486","MEAN_MOTION":"15.06401488","TLE_LINE1":"1 48142U 21027BC  21250.49360800  .00001616  00000-0  12736-3 0  9997","OBJECT_NAME":"STARLINK-2485","REF_FRAME":"TEME","LAUNCH_DATE":"2021-04-07","TIME_SYSTEM":"UTC","ARG_OF_PERICENTER":"144.6383","MEAN_ANOMALY":"215.4656","INCLINATION":"53.0577","NORAD_CAT_ID":"48142","ECCENTRICITY":"0.00007440","BSTAR":"0.00012736000000","SEMIMAJOR_AXIS":"6925.344","GP_ID":"184260599","CLASSIFICATION_TYPE":"U","MEAN_MOTION_DOT":"0.00001616","CENTER_NAME":"EARTH","APOAPSIS":"547.724","PERIAPSIS":"546.694"},{"TLE_LINE2":"2 48143  53.0450 299.4425 0005139 359.0856   1.0152 15.73225626 25373","MEAN_MOTION":"15.73225626","RA_OF_ASC_NODE":"299.4425","OBJECT_NAME":"STARLINK-2486","TLE_LINE1":"1 48143U 21027BD  21250.83913497  .00021302  00000-0  15555-3 0  9998","PERIOD":"91.532","MEAN_MOTION_DDOT":"0.0000000000000","COUNTRY_CODE":"US","REV_AT_EPOCH":"2537","MEAN_ELEMENT_THEORY":"SGP4","RCS_SIZE":"LARGE","OBJECT_TYPE":"PAYLOAD","SITE":"AFETR","EPOCH":"2021-09-07T20:08:21.261408","DECAY_DATE":null,"OBJECT_ID":"2021-027BD","FILE":"3110443","EPHEMERIS_TYPE":"0","ELEMENT_SET_NO":"999","SEMIMAJOR_AXIS":"6727.822","BSTAR":"0.00015555000000","ECCENTRICITY":"0.00051390","NORAD_CAT_ID":"48143","PERIAPSIS":"346.230","CENTER_NAME":"EARTH","APOAPSIS":"353.145","MEAN_MOTION_DOT":"0.00021302","CLASSIFICATION_TYPE":"U","GP_ID":"184283091","TIME_SYSTEM":"UTC","LAUNCH_DATE":"2021-04-07","REF_FRAME":"TEME","INCLINATION":"53.0450","MEAN_ANOMALY":"1.0152","ARG_OF_PERICENTER":"359.0856"},{"SEMIMAJOR_AXIS":"6925.358","BSTAR":"-0.00001611100000","ECCENTRICITY":"0.00009430","NORAD_CAT_ID":"48144","PERIAPSIS":"546.570","CENTER_NAME":"EARTH","APOAPSIS":"547.876","MEAN_MOTION_DOT":"-0.00000521","CLASSIFICATION_TYPE":"U","GP_ID":"184256320","TIME_SYSTEM":"UTC","LAUNCH_DATE":"2021-04-07","REF_FRAME":"TEME","MEAN_ANOMALY":"216.1010","INCLINATION":"53.0574","ARG_OF_PERICENTER":"144.0043","MEAN_MOTION":"15.06396785","TLE_LINE2":"2 48144  53.0574 332.6635 0000943 144.0043 216.1010 15.06396785 24879","RA_OF_ASC_NODE":"332.6635","OBJECT_NAME":"STARLINK-2487","TLE_LINE1":"1 48144U 21027BE  21250.50095801 -.00000521  00000-0 -16111-4 0  9995","PERIOD":"95.592","MEAN_MOTION_DDOT":"0.0000000000000","COUNTRY_CODE":"US","REV_AT_EPOCH":"2487","MEAN_ELEMENT_THEORY":"SGP4","RCS_SIZE":"LARGE","OBJECT_ID":"2021-027BE","DECAY_DATE":null,"SITE":"AFETR","EPOCH":"2021-09-07T12:01:22.772064","OBJECT_TYPE":"PAYLOAD","EPHEMERIS_TYPE":"0","FILE":"3110255","ELEMENT_SET_NO":"999"},{"GP_ID":"184284093","CLASSIFICATION_TYPE":"U","MEAN_MOTION_DOT":"0.00000012","APOAPSIS":"547.786","CENTER_NAME":"EARTH","PERIAPSIS":"546.656","NORAD_CAT_ID":"48145","ECCENTRICITY":"0.00008160","BSTAR":"0.00001965900000","SEMIMAJOR_AXIS":"6925.356","ARG_OF_PERICENTER":"125.8670","MEAN_ANOMALY":"234.2395","INCLINATION":"53.0561","REF_FRAME":"TEME","LAUNCH_DATE":"2021-04-07","TIME_SYSTEM":"UTC","TLE_LINE1":"1 48145U 21027BF  21250.70369011  .00000012  00000-0  19659-4 0  9998","OBJECT_NAME":"STARLINK-2488","RA_OF_ASC_NODE":"331.7469","MEAN_MOTION":"15.06397672","TLE_LINE2":"2 48145  53.0561 331.7469 0000816 125.8670 234.2395 15.06397672 24911","ELEMENT_SET_NO":"999","EPHEMERIS_TYPE":"0","FILE":"3110443","DECAY_DATE":null,"OBJECT_ID":"2021-027BF","SITE":"AFETR","OBJECT_TYPE":"PAYLOAD","EPOCH":"2021-09-07T16:53:18.825504","RCS_SIZE":"LARGE","REV_AT_EPOCH":"2491","COUNTRY_CODE":"US","MEAN_ELEMENT_THEORY":"SGP4","MEAN_MOTION_DDOT":"0.0000000000000","PERIOD":"95.592"},{"NORAD_CAT_ID":"48146","ECCENTRICITY":"0.00013590","BSTAR":"0.00003031500000","SEMIMAJOR_AXIS":"6925.359","GP_ID":"184282841","CLASSIFICATION_TYPE":"U","MEAN_MOTION_DOT":"0.00000170","CENTER_NAME":"EARTH","APOAPSIS":"548.165","PERIAPSIS":"546.282","REF_FRAME":"TEME","LAUNCH_DATE":"2021-04-07","TIME_SYSTEM":"UTC","ARG_OF_PERICENTER":"131.7130","MEAN_ANOMALY":"228.3975","INCLINATION":"53.0569","RA_OF_ASC_NODE":"351.4565","MEAN_MOTION":"15.06396714","TLE_LINE2":"2 48146  53.0569 351.4565 0001359 131.7130 228.3975 15.06396714 24640","TLE_LINE1":"1 48146U 21027BG  21250.76819043  .00000170  00000-0  30315-4 0  9997","OBJECT_NAME":"STARLINK-2489","OBJECT_ID":"2021-027BG","DECAY_DATE":null,"OBJECT_TYPE":"PAYLOAD","SITE":"AFETR","EPOCH":"2021-09-07T18:26:11.653152","RCS_SIZE":"LARGE","COUNTRY_CODE":"US","REV_AT_EPOCH":"2464","MEAN_ELEMENT_THEORY":"SGP4","PERIOD":"95.592","MEAN_MOTION_DDOT":"0.0000000000000","ELEMENT_SET_NO":"999","EPHEMERIS_TYPE":"0","FILE":"3110443"}];
